{"version": 0.6, "generator": "Overpass API 0.7.56.7 b85c4387", "osm3s": {"timestamp_osm_base": "2021-01-05T16:18:03Z", "copyright": "The data included in this document is from www.openstreetmap.org. The data is made available under ODbL."}, "elements": [{"type": "node", "id": 24926754, "lat": 53.4056664, "lon": -2.9780901, "tags": {"amenity": "pub", "name": "The Vines", "wikidata": "Q17551102"}}, {"type": "node", "id": 24934413, "lat": 53.3755419, "lon": -2.8667877, "tags": {"amenity": "pub", "name": "The Famous Elephant"}}, {"type": "node", "id": 24987653, "lat": 53.3995876, "lon": -2.925402, "tags": {"amenity": "pub", "created_by": "JOSM", "name": "The Wellington"}}, {"type": "node", "id": 24987678, "lat": 53.4051381, "lon": -2.9541608, "tags": {"amenity": "pub", "created_by": "Potlatch 0.5d", "name": "The Royal Arms"}}, {"type": "node", "id": 24987679, "lat": 53.4054783, "lon": -2.9546168, "tags": {"amenity": "pub", "name": "The Weighing Machine"}}, {"type": "node", "id": 25103008, "lat": 53.4270568, "lon": -2.9168497, "tags": {"amenity": "pub", "created_by": "Potlatch 0.10f", "name": "Jolly Miller"}}, {"type": "node", "id": 25269344, "lat": 53.397392, "lon": -2.9155827, "tags": {"amenity": "pub", "created_by": "JOSM", "name": "Coffee House"}}, {"type": "node", "id": 25314846, "lat": 53.3748166, "lon": -2.8662116, "tags": {"amenity": "pub", "name": "The Coffee House"}}, {"type": "node", "id": 25316477, "lat": 53.3759181, "lon": -2.8775161, "tags": {"addr:city": "Liverpool", "amenity": "pub", "name": "Gardeners Arms"}}, {"type": "node", "id": 25699144, "lat": 53.3742938, "lon": -2.8533936, "tags": {"amenity": "pub", "name": "English Rose"}}, {"type": "node", "id": 26015998, "lat": 53.3539698, "lon": -2.8987829, "tags": {"amenity": "pub", "name": "The Mariners"}}, {"type": "node", "id": 26016002, "lat": 53.3548035, "lon": -2.9012144, "tags": {"amenity": "pub", "name": "Dealers Arms"}}, {"type": "node", "id": 26353635, "lat": 53.3567245, "lon": -2.8981888, "tags": {"amenity": "pub", "name": "The Masonic"}}, {"type": "node", "id": 26353636, "lat": 53.3558343, "lon": -2.8975434, "tags": {"amenity": "pub", "created_by": "Potlatch 0.8a", "name": "The Derby"}}, {"type": "node", "id": 26353640, "lat": 53.355988, "lon": -2.89543, "tags": {"amenity": "pub", "name": "Garston Home Guard Club"}}, {"type": "node", "id": 26398719, "lat": 53.3548163, "lon": -2.8986394, "tags": {"amenity": "pub", "name": "Wellington Hotel"}}, {"type": "node", "id": 26547265, "lat": 53.3830547, "lon": -2.8619503, "tags": {"amenity": "pub", "created_by": "JOSM", "name": "Brown Cow"}}, {"type": "node", "id": 26547310, "lat": 53.3856594, "lon": -2.8535073, "tags": {"amenity": "pub", "created_by": "JOSM", "name": "The Lee Park"}}, {"type": "node", "id": 26582297, "lat": 53.3899545, "lon": -2.8718692, "tags": {"amenity": "pub", "name": "Crying Tree Bar & Grill , formerly Grange Manor, formerly Gorsey Cop"}}, {"type": "node", "id": 26593847, "lat": 53.3834938, "lon": -2.8627761, "tags": {"amenity": "pub", "created_by": "JOSM", "name": "Black Bull", "wheelchair": "yes", "wikidata": "Q26275858"}}, {"type": "node", "id": 26706052, "lat": 53.3539186, "lon": -2.898064, "tags": {"amenity": "pub", "name": "The George"}}, {"type": "node", "id": 26706053, "lat": 53.3545742, "lon": -2.897358, "tags": {"amenity": "pub", "created_by": "JOSM", "name": "The Swan Inn"}}, {"type": "node", "id": 26862439, "lat": 53.3492021, "lon": -2.9005763, "tags": {"amenity": "pub", "created_by": "JOSM", "name": "The Victoria"}}, {"type": "node", "id": 26862440, "lat": 53.3494828, "lon": -2.9002975, "tags": {"amenity": "pub", "created_by": "JOSM", "name": "King Street Vaults"}}, {"type": "node", "id": 27418967, "lat": 53.4042392, "lon": -2.9818554, "tags": {"amenity": "pub", "name": "O'Neill's"}}, {"type": "node", "id": 27418968, "lat": 53.4043257, "lon": -2.9816738, "tags": {"amenity": "pub", "name": "The Empire"}}, {"type": "node", "id": 27418989, "lat": 53.4037958, "lon": -2.9768012, "tags": {"amenity": "pub", "name": "The Liffey"}}, {"type": "node", "id": 27418990, "lat": 53.403479, "lon": -2.9784364, "tags": {"amenity": "pub", "name": "Newington Temple"}}, {"type": "node", "id": 27419230, "lat": 53.404115, "lon": -2.9816169, "tags": {"amenity": "pub", "name": "Bar Ca Va"}}, {"type": "node", "id": 27419232, "lat": 53.4043422, "lon": -2.9821155, "tags": {"amenity": "pub", "discount:camra_member": "yes", "food": "yes", "name": "The Abbey", "real_ale": "yes"}}, {"type": "node", "id": 27419476, "lat": 53.4012851, "lon": -2.9805724, "tags": {"amenity": "pub", "name": "The Monro", "wikidata": "Q26321010"}}, {"type": "node", "id": 27419487, "lat": 53.4024214, "lon": -2.9785997, "tags": {"amenity": "pub", "created_by": "JOSM", "name": "Revolution"}}, {"type": "node", "id": 27419490, "lat": 53.4023986, "lon": -2.9795797, "tags": {"amenity": "pub", "name": "Jacaranda", "wheelchair": "no"}}, {"type": "node", "id": 27419491, "lat": 53.4025446, "lon": -2.9793615, "tags": {"amenity": "pub", "food": "yes", "name": "The Shipping Forecast", "real_ale": "2 beers (may vary)"}}, {"type": "node", "id": 27419492, "lat": 53.4024772, "lon": -2.9798969, "tags": {"amenity": "pub", "created_by": "JOSM", "name": "Slater's"}}, {"type": "node", "id": 27464837, "lat": 53.3925554, "lon": -2.948997, "tags": {"amenity": "pub", "name": "Chaplins Bar"}}, {"type": "node", "id": 28371943, "lat": 53.40668, "lon": -2.978992, "tags": {"amenity": "pub", "cask_marque": "yes", "food": "yes", "name": "The Crown", "real_ale": "yes", "wikidata": "Q5189381"}}, {"type": "node", "id": 29075847, "lat": 53.3908368, "lon": -2.9708052, "tags": {"amenity": "pub", "created_by": "Potlatch 0.5", "name": "The Royal Oak"}}, {"type": "node", "id": 30003404, "lat": 53.3903598, "lon": -2.8995075, "tags": {"amenity": "pub", "created_by": "JOSM", "name": "Halfway House"}}, {"type": "node", "id": 33125779, "lat": 53.371434, "lon": -2.9023237, "tags": {"amenity": "pub", "created_by": "Potlatch 0.4a", "name": "Greenhills"}}, {"type": "node", "id": 34852621, "lat": 53.3977219, "lon": -2.9501107, "tags": {"amenity": "pub", "created_by": "JOSM", "name": "The Rob Roy"}}, {"type": "node", "id": 34852623, "lat": 53.3983454, "lon": -2.9495075, "tags": {"amenity": "pub", "created_by": "JOSM", "name": "The Boundary", "wikidata": "Q26316650"}}, {"type": "node", "id": 34852637, "lat": 53.3903707, "lon": -2.91476, "tags": {"amenity": "pub", "created_by": "Potlatch 0.5d", "name": "Richmond Tavern"}}, {"type": "node", "id": 55071909, "lat": 53.3659465, "lon": -2.9370179, "tags": {"amenity": "pub", "name": "Otterspool", "operator": "Harvester", "postal_code": "L17 5AL"}}, {"type": "node", "id": 60177229, "lat": 53.3461556, "lon": -2.828859, "tags": {"addr:city": "Liverpool", "addr:postcode": "L24 6SE", "addr:street": "Eastern Avenue", "amenity": "pub", "name": "The Orient"}}, {"type": "node", "id": 65177554, "lat": 53.3738336, "lon": -2.9636666, "tags": {"amenity": "pub", "created_by": "Potlatch 0.4a", "name": "The Britannia"}}, {"type": "node", "id": 68544753, "lat": 53.4073342, "lon": -2.983913, "tags": {"amenity": "pub", "name": "Yate's", "postal_code": "L1 1RH"}}, {"type": "node", "id": 88120065, "lat": 53.3800626, "lon": -2.9143627, "tags": {"amenity": "pub", "created_by": "JOSM", "name": "The Rose of Mossley"}}, {"type": "node", "id": 88130411, "lat": 53.3762904, "lon": -2.9071785, "tags": {"amenity": "pub", "name": "The Storrsdale"}}, {"type": "node", "id": 88137855, "lat": 53.3802922, "lon": -2.913722, "tags": {"amenity": "pub", "created_by": "Potlatch 0.4a", "name": "Mossley Hill Royal British Legion"}}, {"type": "node", "id": 101419880, "lat": 53.4098627, "lon": -2.993777, "tags": {"addr:housenumber": "13", "addr:postcode": "L3 9NS", "addr:street": "Earle Street", "amenity": "pub", "fhrs:id": "948006", "fixme:addr1": "13 Earle Street", "name": "Cross Keys", "source:addr": "FHRS Open Data"}}, {"type": "node", "id": 101421581, "lat": 53.4082008, "lon": -2.9930284, "tags": {"addr:city": "Liverpool", "addr:housenumber": "1", "addr:postcode": "L3 9HF", "addr:street": "Old Hall Street", "amenity": "pub", "fhrs:id": "521553", "name": "Exchange", "source:addr": "FHRS Open Data"}}, {"type": "node", "id": 101422414, "lat": 53.4079223, "lon": -2.9910894, "tags": {"amenity": "pub", "cuisine": "indian", "name": "Barton Rouge"}}, {"type": "node", "id": 101424779, "lat": 53.4077306, "lon": -2.9897788, "tags": {"addr:housenumber": "23", "addr:postcode": "L2 2EZ", "addr:street": "Dale Street", "amenity": "pub", "brand": "Okell's", "cask_marque": "yes", "fhrs:id": "496294", "food": "yes", "name": "Thomas Rigby's", "operator": "Heron and Brearley", "real_ale": "yes", "source:addr": "FHRS Open Data"}}, {"type": "node", "id": 101425451, "lat": 53.4064989, "lon": -2.9889116, "tags": {"amenity": "pub", "name": "Slug and Lettuce"}}, {"type": "node", "id": 101429483, "lat": 53.4061753, "lon": -2.9861865, "tags": {"addr:housenumber": "4-6", "addr:postcode": "L2 6PT", "addr:street": "Rainford Gardens", "amenity": "pub", "fhrs:id": "521563", "name": "The White Star", "source:addr": "FHRS Open Data"}}, {"type": "node", "id": 101429629, "lat": 53.4057902, "lon": -2.9858324, "tags": {"amenity": "pub", "name": "The Welkin"}}, {"type": "node", "id": 101431025, "lat": 53.4075034, "lon": -2.9855551, "tags": {"addr:housenumber": "1-3", "addr:postcode": "L1 6BW", "addr:street": "Sir Thomas Street", "amenity": "pub", "name": "Victoria Cross", "old_name": "Ned Kelly's", "source:addr": "FHRS Open Data", "source:name": "Mapillary"}}, {"type": "node", "id": 101433399, "lat": 53.4049673, "lon": -2.9916084, "tags": {"amenity": "pub", "name": "The Liverpool"}}, {"type": "node", "id": 101435072, "lat": 53.4067381, "lon": -2.9871736, "tags": {"addr:postcode": "L2 6PY", "addr:street": "Temple Court", "amenity": "pub", "fhrs:id": "497339", "name": "Revolution", "source:addr": "FHRS Open Data"}}, {"type": "node", "id": 101437338, "lat": 53.4074149, "lon": -2.9939407, "tags": {"amenity": "pub", "name": "The Pig and Whistle"}}, {"type": "node", "id": 101437407, "lat": 53.4066104, "lon": -2.9943231, "tags": {"amenity": "pub", "name": "Ma Boyles Oyster Bar"}}, {"type": "node", "id": 105708499, "lat": 53.4159252, "lon": -2.9565026, "tags": {"amenity": "pub"}}, {"type": "node", "id": 105717976, "lat": 53.4266127, "lon": -2.9182232, "tags": {"amenity": "pub", "name": "Stag and Rainbow", "operator": "Beefeater"}}, {"type": "node", "id": 105746431, "lat": 53.3985948, "lon": -2.986636}, {"type": "node", "id": 107125563, "lat": 53.400352, "lon": -2.9729389, "tags": {"amenity": "pub", "name": "The Pilgrim"}}, {"type": "node", "id": 107285489, "lat": 53.4247894, "lon": -2.9544313, "tags": {"amenity": "pub", "created_by": "JOSM", "name": "The George"}}, {"type": "node", "id": 107295873, "lat": 53.4284235, "lon": -2.9497131, "tags": {"amenity": "pub", "created_by": "JOSM", "name": "The Willow Bank"}}, {"type": "node", "id": 110696984, "lat": 53.413361, "lon": -2.9136354, "tags": {"amenity": "pub", "name": "The Old Swan"}}, {"type": "node", "id": 110696992, "lat": 53.4136083, "lon": -2.9109398, "tags": {"amenity": "pub", "name": "Masons"}}, {"type": "node", "id": 111793905, "lat": 53.4213076, "lon": -2.9633705, "tags": {"amenity": "pub", "created_by": "JOSM", "name": "The Brunel"}}, {"type": "node", "id": 111949490, "lat": 53.4298207, "lon": -2.9731476, "tags": {"amenity": "pub", "created_by": "JOSM", "name": "The Devonshire Arms"}}, {"type": "node", "id": 119741146, "lat": 53.3810891, "lon": -2.9460814, "tags": {"amenity": "pub", "name": "Maranto's Balcony Bars", "wheelchair": "limited"}}, {"type": "node", "id": 136943415, "lat": 53.4058122, "lon": -2.9648465, "tags": {"amenity": "pub", "name": "The Augustus John"}}, {"type": "node", "id": 152294598, "lat": 53.406151, "lon": -2.8998971}, {"type": "node", "id": 157502482, "lat": 53.4111977, "lon": -2.9861296, "tags": {"amenity": "pub", "name": "Borough Hotel"}}, {"type": "node", "id": 240043281, "lat": 53.3962912, "lon": -2.9315146, "tags": {"amenity": "pub", "created_by": "Potlatch 0.10b", "name": "The Waldeck"}}, {"type": "node", "id": 240066097, "lat": 53.3929348, "lon": -2.9339055, "tags": {"amenity": "pub", "created_by": "JOSM", "name": "The Willow Bank"}}, {"type": "node", "id": 240082569, "lat": 53.389711, "lon": -2.9230607, "tags": {"amenity": "pub", "name": "Sefton Park Conservative Club"}}, {"type": "node", "id": 240105894, "lat": 53.38839, "lon": -2.9348359, "tags": {"amenity": "pub", "created_by": "JOSM", "name": "Sefton Cricket Club"}}, {"type": "node", "id": 240115990, "lat": 53.389269, "lon": -2.9188467, "tags": {"amenity": "pub", "created_by": "Potlatch 0.6c", "name": "Fogherty's"}}, {"type": "node", "id": 245010372, "lat": 53.3996528, "lon": -2.9218442, "tags": {"amenity": "pub", "created_by": "Potlatch 0.6c", "name": "The Edinburgh", "wikidata": "Q26644941"}}, {"type": "node", "id": 245010595, "lat": 53.4030341, "lon": -2.9203124, "tags": {"amenity": "pub", "created_by": "JOSM", "name": "Sandown Park Social Club"}}, {"type": "node", "id": 245054839, "lat": 53.3987501, "lon": -2.9183148, "tags": {"amenity": "pub", "created_by": "JOSM", "name": "The Prince Alfred"}}, {"type": "node", "id": 245054840, "lat": 53.3985681, "lon": -2.9159146, "tags": {"amenity": "pub", "name": "Wavertree Town Hall"}}, {"type": "node", "id": 245061853, "lat": 53.396773, "lon": -2.8965803, "tags": {"amenity": "pub", "food": "yes", "name": "Childwall Fiveways", "operator": "J D Wetherspoon", "real_ale": "Usual Wetherspoons selection", "wheelchair": "no", "wheelchair:description": "Steps at main entrance"}}, {"type": "node", "id": 245064048, "lat": 53.4068219, "lon": -2.9140598, "tags": {"amenity": "pub", "created_by": "Potlatch 0.6c", "name": "McGinty's Irish Bar"}}, {"type": "node", "id": 245064984, "lat": 53.4074461, "lon": -2.9173557, "tags": {"amenity": "pub", "created_by": "Potlatch 0.6c", "name": "The Rose"}}, {"type": "node", "id": 245066237, "lat": 53.4097434, "lon": -2.9140255, "tags": {"amenity": "pub", "created_by": "Potlatch 0.6c", "name": "The Glasshouse"}}, {"type": "node", "id": 245066866, "lat": 53.4100601, "lon": -2.9170486, "tags": {"amenity": "pub", "name": "The Paraffin Oil Shop"}}, {"type": "node", "id": 245070101, "lat": 53.3985384, "lon": -2.9172698, "tags": {"amenity": "pub", "name": "The Cock and The Bottle"}}, {"type": "node", "id": 245070102, "lat": 53.3983769, "lon": -2.9164001, "tags": {"amenity": "pub", "created_by": "Potlatch 0.7b", "name": "The Lamb"}}, {"type": "node", "id": 245071127, "lat": 53.4017461, "lon": -2.9189128, "tags": {"amenity": "pub", "created_by": "Potlatch 0.6c", "name": "Washies Public Bar"}}, {"type": "node", "id": 247386387, "lat": 53.3765535, "lon": -2.9324999, "tags": {"amenity": "pub", "created_by": "JOSM", "name": "Aigburth Peoples Hall Social Club", "wheelchair": "no"}}, {"type": "node", "id": 252407839, "lat": 53.3746834, "lon": -2.9382143, "tags": {"amenity": "pub", "name": "The Fulwood Arms"}}, {"type": "node", "id": 252502462, "lat": 53.3752725, "lon": -2.954017, "tags": {"amenity": "pub", "created_by": "Potlatch 0.7b", "name": "Aigburth Cricket and Bowling Club"}}, {"type": "node", "id": 252559464, "lat": 53.3982438, "lon": -2.9165288, "tags": {"amenity": "pub", "created_by": "Potlatch 0.7b", "name": "Barley Mow"}}, {"type": "node", "id": 280816986, "lat": 53.3802119, "lon": -2.9667253, "tags": {"amenity": "pub", "name": "Bleak House"}}, {"type": "node", "id": 280823201, "lat": 53.3793049, "lon": -2.9650527, "tags": {"amenity": "pub", "name": "Wilson's Tavern"}}, {"type": "node", "id": 280838818, "lat": 53.3841014, "lon": -2.9663512, "tags": {"amenity": "pub", "name": "The Anglesea"}}, {"type": "node", "id": 280851262, "lat": 53.383927, "lon": -2.9692732, "tags": {"amenity": "pub", "name": "Derby Arms"}}, {"type": "node", "id": 282418661, "lat": 53.4051528, "lon": -2.9911031, "tags": {"amenity": "pub", "name": "First National Wine Bar"}}, {"type": "node", "id": 282423769, "lat": 53.4089569, "lon": -2.9904289, "tags": {"addr:housenumber": "67", "addr:postcode": "L2 2BP", "addr:street": "Moorfields", "amenity": "pub", "cask_marque": "yes", "fhrs:id": "496922", "name": "The Lion Tavern", "real_ale": "yes", "source:addr": "FHRS Open Data", "wikidata": "Q26644922"}}, {"type": "node", "id": 282424525, "lat": 53.4085102, "lon": -2.9876311, "tags": {"amenity": "pub", "name": "Vernon Arms"}}, {"type": "node", "id": 282425022, "lat": 53.4103118, "lon": -2.989015, "tags": {"addr:housenumber": "77", "addr:postcode": "L2 2EN", "addr:street": "Tithebarn Street", "amenity": "pub", "fhrs:id": "497318", "name": "Shenanigans", "source:addr": "FHRS Open Data"}}, {"type": "node", "id": 284422069, "lat": 53.3743194, "lon": -2.8686715, "tags": {"addr:city": "Liverpool", "amenity": "pub", "name": "The Wine Bar"}}, {"type": "node", "id": 286374773, "lat": 53.3760423, "lon": -2.8672668, "tags": {"addr:city": "Liverpool", "amenity": "pub", "name": "The White Horse"}}, {"type": "node", "id": 286374930, "lat": 53.3599149, "lon": -2.8651514, "tags": {"amenity": "pub", "created_by": "Potlatch 0.10b", "name": "The Hillfoot Inn"}}, {"type": "node", "id": 286673002, "lat": 53.3927388, "lon": -2.9821345, "tags": {"amenity": "pub", "created_by": "Potlatch 0.10b", "name": "The Coburg"}}, {"type": "node", "id": 288407219, "lat": 53.3886551, "lon": -2.9608195, "tags": {"amenity": "pub", "created_by": "Potlatch 0.10b", "name": "The Empress"}}, {"type": "node", "id": 288407221, "lat": 53.3895099, "lon": -2.9626906, "tags": {"amenity": "pub", "created_by": "Potlatch 0.10b", "name": "The Lothian"}}, {"type": "node", "id": 296226807, "lat": 53.4196646, "lon": -2.9998637, "tags": {"amenity": "pub", "name": "Farmers Arms"}}, {"type": "node", "id": 296234617, "lat": 53.4180584, "lon": -2.9967434, "tags": {"amenity": "pub", "name": "The Goat"}}, {"type": "node", "id": 299317177, "lat": 53.3932721, "lon": -2.9789685, "tags": {"addr:postcode": "L8 5XJ", "addr:street": "Stanhope Street", "amenity": "pub", "name": "The Brewery Tap"}}, {"type": "node", "id": 299318106, "lat": 53.3946079, "lon": -2.9704814, "tags": {"amenity": "pub", "name": "The Wellington"}}, {"type": "node", "id": 300590738, "lat": 53.3895463, "lon": -2.9732284, "tags": {"amenity": "pub", "created_by": "Potlatch 0.10c", "name": "Mosley Arms"}}, {"type": "node", "id": 300593569, "lat": 53.3896845, "lon": -2.9703617, "tags": {"amenity": "pub", "created_by": "Potlatch 0.10c", "name": "The Globe"}}, {"type": "node", "id": 308766554, "lat": 53.4077533, "lon": -2.9866105, "tags": {"addr:housenumber": "23", "addr:street": "Cumberland Street", "amenity": "pub", "gay": "yes", "name": "The Poste House", "phone": "+44 151 236 4130", "postal_code": "L1 6BU"}}, {"type": "node", "id": 308766571, "lat": 53.407279, "lon": -2.986967, "tags": {"addr:housenumber": "35", "addr:postcode": "L1 6BG", "addr:street": "Victoria Street", "amenity": "pub", "contact:facebook": "https://www.facebook.com/lisbonbarliverpool/", "email": "thelisbon@yahoo.com", "fhrs:id": "497393", "gay": "yes", "lgbtq": "primary", "name": "The Lisbon", "phone": "+44 151 231 6831", "postal_code": "L1 6BG"}}, {"type": "node", "id": 308766618, "lat": 53.4072294, "lon": -2.9872688, "tags": {"addr:housenumber": "24", "addr:postcode": "L1 6AF", "addr:street": "Stanley Street", "amenity": "pub", "contact:facebook": "https://www.facebook.com/superstarboudoirliverpool", "fhrs:id": "521625", "gay": "yes", "lgbtq": "primary", "name": "Superstar Boudoir", "phone": "+44 151 227 4590", "postal_code": "L1 6AF"}}, {"type": "node", "id": 308766622, "lat": 53.4084577, "lon": -2.9887186, "tags": {"addr:housenumber": "27-29", "addr:street": "Stanley Street", "amenity": "pub", "contact:facebook": "https://www.facebook.com/The-Navy-Bar-1380034665654224/", "contact:twitter": "https://twitter.com/The_Navy_Bar", "email": "info@navybarliverpool.co.uk", "gay": "yes", "lgbtq": "primary", "name": "The Navy Bar", "phone": "+44 151 231 1456", "postal_code": "L1 6AA", "website": "http://www.navybarliverpool.co.uk/"}}, {"type": "node", "id": 312484145, "lat": 53.4455369, "lon": -2.967206, "tags": {"amenity": "pub", "created_by": "Potlatch 0.10f", "name": "The Black Horse"}}, {"type": "node", "id": 316745016, "lat": 53.4000908, "lon": -2.9490305, "tags": {"amenity": "pub", "created_by": "Potlatch 0.10f", "name": "The Spekeland"}}, {"type": "node", "id": 316769588, "lat": 53.4003367, "lon": -2.9403331, "tags": {"amenity": "pub", "created_by": "Potlatch 0.10f", "name": "The Spofforth"}}, {"type": "node", "id": 347639220, "lat": 53.4014165, "lon": -2.9787567, "tags": {"amenity": "pub", "name": "Studio 2"}}, {"type": "node", "id": 348176545, "lat": 53.4084255, "lon": -2.9786084, "tags": {"addr:city": "Liverpool", "addr:housenumber": "7", "addr:postcode": "L1 1RJ", "addr:street": "Lime Street", "amenity": "pub", "cask_marque": "yes", "fhrs:id": "779717", "food": "yes", "name": "The North Western", "opening_hours": "Mo-Sa 06:00-00:00; Su 08:00-00:00", "operator": "J.D. Wetherspoon", "phone": "+44 1517 096825", "real_ale": "yes", "website": "https://www.jdwetherspoon.com/pubs"}}, {"type": "node", "id": 367605408, "lat": 53.404706, "lon": -2.9770218, "tags": {"amenity": "pub", "name": "The Beehive"}}, {"type": "node", "id": 367606249, "lat": 53.4046739, "lon": -2.9769307, "tags": {"amenity": "pub", "name": "Riley's"}}, {"type": "node", "id": 371206704, "lat": 53.4019071, "lon": -2.9776221, "tags": {"amenity": "pub", "name": "Chameleon"}}, {"type": "node", "id": 416931199, "lat": 53.4722607, "lon": -2.9551736, "tags": {"amenity": "pub", "name": "The Queens Arms"}}, {"type": "node", "id": 416999842, "lat": 53.4667687, "lon": -2.9495042, "tags": {"amenity": "pub", "name": "The Prince George"}}, {"type": "node", "id": 417128294, "lat": 53.4646015, "lon": -2.9571576}, {"type": "node", "id": 417128296, "lat": 53.4649128, "lon": -2.9575598}, {"type": "node", "id": 417128299, "lat": 53.4646375, "lon": -2.9578749}, {"type": "node", "id": 417128301, "lat": 53.4644659, "lon": -2.9575866}, {"type": "node", "id": 436643718, "lat": 53.4044459, "lon": -2.9829363, "tags": {"amenity": "pub", "name": "Old Post Office"}}, {"type": "node", "id": 471828853, "lat": 53.3914066, "lon": -2.9319965, "tags": {"amenity": "pub", "name": "Kelly's Dispensary"}}, {"type": "node", "id": 512529097, "lat": 53.4115189, "lon": -2.9154348, "tags": {"amenity": "pub", "name": "Saint Oswalds Parish Club"}}, {"type": "node", "id": 540449565, "lat": 53.3974623, "lon": -2.9469263, "tags": {"addr:housenumber": "46", "addr:postcode": "L7 4JG", "addr:street": "Smithdown Road", "amenity": "pub", "name": "Newstead Abbey"}}, {"type": "node", "id": 567421344, "lat": 53.4031595, "lon": -2.9683283, "tags": {"amenity": "pub", "name": "The Font"}}, {"type": "node", "id": 567422269, "lat": 53.4013438, "lon": -2.9683438, "tags": {"amenity": "pub", "name": "Baa Bar"}}, {"type": "node", "id": 571410786, "lat": 53.3533306, "lon": -2.8969121, "tags": {"addr:housenumber": "1-3", "addr:postcode": "L19 2NJ", "addr:street": "Saint Mary's Road", "amenity": "pub", "cuisine": "gastropub", "name": "The Stables", "phone": "+44 151 427 6026", "website": "http://www.thestablesgarston.com/"}}, {"type": "node", "id": 619521920, "lat": 53.4019111, "lon": -2.9704742, "tags": {"amenity": "pub", "name": "Frederiks"}}, {"type": "node", "id": 629241317, "lat": 53.4200867, "lon": -2.9238145, "tags": {"amenity": "pub", "name": "St George"}}, {"type": "node", "id": 673970192, "lat": 53.4004442, "lon": -2.9719906, "tags": {"addr:city": "Liverpool", "addr:housenumber": "13", "addr:postcode": "L1 9BB", "addr:street": "Rice Street", "amenity": "pub", "fhrs:id": "497141", "name": "Ye Cracke", "wikidata": "Q8050740"}}, {"type": "node", "id": 673979738, "lat": 53.4019689, "lon": -2.9723024, "tags": {"addr:housenumber": "13", "addr:postcode": "L1 9AS", "addr:street": "Hardman Street", "amenity": "pub", "brand": "Okell's", "cask_marque": "yes", "name": "Fly in the Loaf", "operator": "Heron and Brearley", "real_ale": "yes"}}, {"type": "node", "id": 673979741, "lat": 53.4018091, "lon": -2.9714674, "tags": {"amenity": "pub", "cask_marque": "yes", "name": "The Flute", "real_ale": "yes"}}, {"type": "node", "id": 681268498, "lat": 53.4061212, "lon": -2.979789, "tags": {"amenity": "pub", "name": "The Richard John Blackler", "operator": "J D Wetherspoon", "real_ale": "yes", "website": "http://www.jdwetherspoon.co.uk/home/pubs/the-richard-john-blackler"}}, {"type": "node", "id": 868231394, "lat": 53.4096347, "lon": -2.9845245, "tags": {"amenity": "pub", "food": "yes", "name": "Ship & Mitre", "real_ale": "13 or so beers", "real_cider": "yes"}}, {"type": "node", "id": 868234815, "lat": 53.4025495, "lon": -2.9756622, "tags": {"amenity": "pub", "name": "The Dispensary", "real_ale": "yes"}}, {"type": "node", "id": 871133560, "lat": 53.4012091, "lon": -2.9766548, "tags": {"addr:city": "Liverpool", "addr:country": "GB", "addr:housenumber": "77", "addr:street": "Seel Street", "amenity": "pub", "name": "Pogue Mahones"}}, {"type": "node", "id": 918607234, "lat": 53.3971353, "lon": -2.9493971, "tags": {"addr:housenumber": "19", "addr:postcode": "L8 0QD", "addr:street": "Lodge Lane", "amenity": "pub", "name": "The Masonic Arms"}}, {"type": "node", "id": 964896353, "lat": 53.4017883, "lon": -2.9738733, "tags": {"amenity": "pub", "name": "Hannah's Bar"}}, {"type": "node", "id": 964896354, "lat": 53.4017078, "lon": -2.9708186, "tags": {"amenity": "pub", "name": "The Magnet"}}, {"type": "node", "id": 968912617, "lat": 53.438772, "lon": -2.9677018, "tags": {"amenity": "pub", "name": "The Winslow Hotel"}}, {"type": "node", "id": 968912833, "lat": 53.438142, "lon": -2.9712276, "tags": {"amenity": "pub", "name": "Royal Oak"}}, {"type": "node", "id": 968920724, "lat": 53.4359333, "lon": -2.972729, "tags": {"amenity": "pub", "name": "Thomas Frost"}}, {"type": "node", "id": 968920892, "lat": 53.4355498, "lon": -2.9727183, "tags": {"amenity": "pub", "name": "The Clock"}}, {"type": "node", "id": 968921461, "lat": 53.4351408, "lon": -2.9723643, "tags": {"amenity": "pub", "name": "The Pacific"}}, {"type": "node", "id": 968923854, "lat": 53.4405221, "lon": -2.9678581, "tags": {"amenity": "pub", "name": "The Spellow"}}, {"type": "node", "id": 968929818, "lat": 53.4406755, "lon": -2.9708837, "tags": {"amenity": "pub", "name": "Harlech Castle"}}, {"type": "node", "id": 968942220, "lat": 53.4394548, "lon": -2.9707871, "tags": {"amenity": "pub", "name": "The Brick"}}, {"type": "node", "id": 968947846, "lat": 53.4357927, "lon": -2.9681049, "tags": {"amenity": "pub", "name": "The Abbey"}}, {"type": "node", "id": 968951767, "lat": 53.4403559, "lon": -2.9728363, "tags": {"amenity": "pub", "name": "Carsbrooke"}}, {"type": "node", "id": 968951769, "lat": 53.4368508, "lon": -2.971133, "tags": {"amenity": "pub", "name": "St. Francis De Sales RC Parochial Club"}}, {"type": "node", "id": 968951897, "lat": 53.4364191, "lon": -2.9720853, "tags": {"amenity": "pub", "name": "Queens Arms"}}, {"type": "node", "id": 990202065, "lat": 53.401798, "lon": -2.9918617}, {"type": "node", "id": 990202066, "lat": 53.4017114, "lon": -2.9922129}, {"type": "node", "id": 990202067, "lat": 53.4018189, "lon": -2.9922875}, {"type": "node", "id": 990202068, "lat": 53.4018552, "lon": -2.9921403}, {"type": "node", "id": 990202071, "lat": 53.4018822, "lon": -2.9921591}, {"type": "node", "id": 990202072, "lat": 53.4018967, "lon": -2.9921006}, {"type": "node", "id": 990202074, "lat": 53.4018696, "lon": -2.9920818}, {"type": "node", "id": 990202076, "lat": 53.4019055, "lon": -2.9919363}, {"type": "node", "id": 1095549691, "lat": 53.418699, "lon": -2.9549187, "tags": {"amenity": "pub", "name": "St. Michael's Irish Centre, Everton"}}, {"type": "node", "id": 1139717849, "lat": 53.4031453, "lon": -2.9805172, "tags": {"amenity": "pub", "name": "Walkabout"}}, {"type": "node", "id": 1139720680, "lat": 53.4024404, "lon": -2.9780446, "tags": {"amenity": "pub", "name": "The Swan"}}, {"type": "node", "id": 1241183502, "lat": 53.4083829, "lon": -2.9822638, "tags": {"addr:postcode": "L1 1HF", "addr:street": "St Johns Lane", "amenity": "pub", "name": "Doctor Duncan's", "source": "Bing & Memory", "website": "http://www.cainsbeers.com/index/articles_view.php?article_id=102"}}, {"type": "node", "id": 1621838264, "lat": 53.4023473, "lon": -2.9712403, "tags": {"amenity": "pub", "name": "Hope & Anchor"}}, {"type": "node", "id": 1621842651, "lat": 53.4052145, "lon": -2.9803384, "tags": {"amenity": "pub", "name": "The Globe"}}, {"type": "node", "id": 1621849304, "lat": 53.4064665, "lon": -2.9843912, "tags": {"addr:housenumber": "32", "addr:postcode": "L1 1EB", "addr:street": "Williamson Street", "amenity": "pub", "fhrs:id": "497522", "name": "Richmond Pub", "source:addr": "FHRS Open Data"}}, {"type": "node", "id": 1651726818, "lat": 53.4035778, "lon": -2.9804742, "tags": {"amenity": "pub", "name": "Cellar 24", "opening_hours": "Th - Su 18:00 - 03:00", "phone": "07799 434998\u202c", "source": "Survey 27 feb 12", "website": "www.cellar24.co.uk"}}, {"type": "node", "id": 1651726821, "lat": 53.4037651, "lon": -2.9808597, "tags": {"amenity": "pub", "name": "Revolution Bar", "phone": "+44 151 707 1933", "source": "Survey 27 feb 12", "website": "https://www.revolution-bars.co.uk/"}}, {"type": "node", "id": 1651726822, "lat": 53.4033352, "lon": -2.9798527, "tags": {"amenity": "pub", "name": "Ruby Sky", "phone": "+44 151 707 6470", "postal_code": "L1 4AQ", "source": "Survey 27 feb 12", "website": "http://www.ruby-sky.co.uk/"}}, {"type": "node", "id": 1651726826, "lat": 53.4029894, "lon": -2.980238, "tags": {"addr:city": "Liverpool", "addr:postcode": "L1 4NR", "addr:street": "Fleet Street/Concert Square", "amenity": "pub", "name": "The Lime Kiln", "phone": "+44 151 702 6810", "website": "http://www.jdwetherspoon.co.uk/home/pubs/the-lime-kiln"}}, {"type": "node", "id": 1651734288, "lat": 53.4028098, "lon": -2.9739924, "tags": {"amenity": "pub", "name": "Arena Bar"}}, {"type": "node", "id": 1651734297, "lat": 53.4028358, "lon": -2.9749475, "tags": {"amenity": "pub", "name": "OSQA Sports Bar"}}, {"type": "node", "id": 1651734300, "lat": 53.4027061, "lon": -2.9758729, "tags": {"amenity": "pub", "name": "Roscoe Arms"}}, {"type": "node", "id": 1651734306, "lat": 53.4021757, "lon": -2.9767447, "tags": {"amenity": "pub", "name": "Soul Cafe and Bar"}}, {"type": "node", "id": 1651734323, "lat": 53.4036446, "lon": -2.9796549, "tags": {"amenity": "pub", "name": "The Crafty Chandler"}}, {"type": "node", "id": 1652773979, "lat": 53.4058364, "lon": -2.9772, "tags": {"amenity": "pub", "name": "Wave Bar"}}, {"type": "node", "id": 1652784504, "lat": 53.4015737, "lon": -2.978267, "tags": {"amenity": "pub", "name": "Heebie Jeebies"}}, {"type": "node", "id": 1652784505, "lat": 53.402321, "lon": -2.9796791, "tags": {"amenity": "pub", "name": "O'Briens"}}, {"type": "node", "id": 1652784506, "lat": 53.4021387, "lon": -2.9791312, "tags": {"amenity": "pub", "name": "The Peacock"}}, {"type": "node", "id": 1652784507, "lat": 53.4022307, "lon": -2.979443, "tags": {"amenity": "pub", "name": "The Zanzibar Club"}}, {"type": "node", "id": 1777366124, "lat": 53.3411716, "lon": -2.8379743, "tags": {"amenity": "pub", "name": "Noah's Ark Social Club"}}, {"type": "node", "id": 1906668980, "lat": 53.4063252, "lon": -2.9888741, "tags": {"addr:housenumber": "18", "addr:postcode": "L2 9RL", "addr:street": "North John Street", "amenity": "pub", "fhrs:id": "498286", "name": "The William Gladstone", "source:addr": "FHRS Open Data"}}, {"type": "node", "id": 1950696755, "lat": 53.4023932, "lon": -2.9667775, "tags": {"amenity": "pub", "name": "The Cambridge"}}, {"type": "node", "id": 1950697067, "lat": 53.4004735, "lon": -2.9679201, "tags": {"addr:postcode": "L7 7DX", "amenity": "pub", "cuisine": "burger", "diet:vegan": "only", "diet:vegetarian": "only", "happycow:id": "100975", "name": "The Caledonia"}}, {"type": "node", "id": 2092758571, "lat": 53.404158, "lon": -2.9477657}, {"type": "node", "id": 2092758572, "lat": 53.4041755, "lon": -2.9479449}, {"type": "node", "id": 2092758573, "lat": 53.4042164, "lon": -2.9477695}, {"type": "node", "id": 2092758574, "lat": 53.404224, "lon": -2.9478576}, {"type": "node", "id": 2092758575, "lat": 53.4043165, "lon": -2.947963}, {"type": "node", "id": 2092758576, "lat": 53.4043197, "lon": -2.9478711}, {"type": "node", "id": 2122597293, "lat": 53.3982847, "lon": -2.9185942}, {"type": "node", "id": 2122597294, "lat": 53.3982921, "lon": -2.9185336}, {"type": "node", "id": 2122597295, "lat": 53.3983046, "lon": -2.9186568}, {"type": "node", "id": 2122597296, "lat": 53.3983114, "lon": -2.9186046}, {"type": "node", "id": 2122597298, "lat": 53.3983369, "lon": -2.9186631}, {"type": "node", "id": 2122597300, "lat": 53.3983693, "lon": -2.9187205}, {"type": "node", "id": 2122597301, "lat": 53.3983762, "lon": -2.9187706}, {"type": "node", "id": 2122597303, "lat": 53.3983861, "lon": -2.918566}, {"type": "node", "id": 2122597305, "lat": 53.3984303, "lon": -2.9186484}, {"type": "node", "id": 2122597306, "lat": 53.3984415, "lon": -2.9187539}, {"type": "node", "id": 2209287428, "lat": 53.4119438, "lon": -2.9472767, "tags": {"addr:housenumber": "286", "addr:street": "Kensington", "amenity": "pub", "name": "The Picturedrome", "operator": "Wetherspoon", "phone": "+44 151 261 2410", "wheelchair": "yes"}}, {"type": "node", "id": 2209291865, "lat": 53.4118477, "lon": -2.9475914}, {"type": "node", "id": 2209291866, "lat": 53.41185, "lon": -2.9477005}, {"type": "node", "id": 2209291867, "lat": 53.4118824, "lon": -2.9475957}, {"type": "node", "id": 2209291868, "lat": 53.4118919, "lon": -2.9474738}, {"type": "node", "id": 2209291869, "lat": 53.4119651, "lon": -2.9477044}, {"type": "node", "id": 2209291870, "lat": 53.4119832, "lon": -2.9476743}, {"type": "node", "id": 2209291871, "lat": 53.4119878, "lon": -2.9474956}, {"type": "node", "id": 2210413351, "lat": 53.4122696, "lon": -2.9425663}, {"type": "node", "id": 2210413352, "lat": 53.4123004, "lon": -2.9423906}, {"type": "node", "id": 2210413353, "lat": 53.412305, "lon": -2.9425837}, {"type": "node", "id": 2210413354, "lat": 53.4123358, "lon": -2.942408}, {"type": "node", "id": 2210413357, "lat": 53.4124323, "lon": -2.9426464}, {"type": "node", "id": 2210413358, "lat": 53.412463, "lon": -2.9424706}, {"type": "node", "id": 2210594694, "lat": 53.41212, "lon": -2.9498591, "tags": {"amenity": "pub", "name": "The Kensington"}}, {"type": "node", "id": 2210611742, "lat": 53.4120534, "lon": -2.9508163, "tags": {"amenity": "pub", "name": "The Richmond Lodge"}}, {"type": "node", "id": 2210618314, "lat": 53.4119671, "lon": -2.9515654}, {"type": "node", "id": 2210618316, "lat": 53.4119789, "lon": -2.9514132}, {"type": "node", "id": 2210618320, "lat": 53.4120659, "lon": -2.951587}, {"type": "node", "id": 2210618323, "lat": 53.4120777, "lon": -2.9514348}, {"type": "node", "id": 2242905919, "lat": 53.4017786, "lon": -2.9706637}, {"type": "node", "id": 2242905962, "lat": 53.4018476, "lon": -2.9706342}, {"type": "node", "id": 2242905996, "lat": 53.4018169, "lon": -2.9704489}, {"type": "node", "id": 2242906042, "lat": 53.4016557, "lon": -2.970519}, {"type": "node", "id": 2242906058, "lat": 53.4016418, "lon": -2.9705761}, {"type": "node", "id": 2242906060, "lat": 53.4018302, "lon": -2.9706416}, {"type": "node", "id": 2265067597, "lat": 53.4077539, "lon": -2.9901766, "tags": {"addr:housenumber": "4", "addr:postcode": "L2 2AW", "addr:street": "Hackins Hey", "amenity": "pub", "cask_marque": "yes", "fhrs:id": "496490", "name": "Ye Hole In Ye Wall", "real_ale": "yes", "website": "http://www.yeholeinyewall.co.uk/"}}, {"type": "node", "id": 2308757860, "lat": 53.4056083, "lon": -2.9842973}, {"type": "node", "id": 2308757863, "lat": 53.4050845, "lon": -2.985704}, {"type": "node", "id": 2308757864, "lat": 53.4055445, "lon": -2.9843186}, {"type": "node", "id": 2308757877, "lat": 53.4050334, "lon": -2.985726}, {"type": "node", "id": 2308757883, "lat": 53.4055158, "lon": -2.9840783}, {"type": "node", "id": 2308757892, "lat": 53.4050294, "lon": -2.9853094}, {"type": "node", "id": 2308757894, "lat": 53.4049833, "lon": -2.9853231}, {"type": "node", "id": 2308757906, "lat": 53.4055358, "lon": -2.9842454}, {"type": "node", "id": 2308757918, "lat": 53.4055799, "lon": -2.9840572}, {"type": "node", "id": 2317190700, "lat": 53.3900745, "lon": -2.9272881}, {"type": "node", "id": 2317190701, "lat": 53.3899885, "lon": -2.9273092}, {"type": "node", "id": 2317190702, "lat": 53.3899728, "lon": -2.927197}, {"type": "node", "id": 2317190703, "lat": 53.3899963, "lon": -2.9271897}, {"type": "node", "id": 2317190704, "lat": 53.389975, "lon": -2.9270178}, {"type": "node", "id": 2317190705, "lat": 53.3899694, "lon": -2.9269653}, {"type": "node", "id": 2317190706, "lat": 53.3898407, "lon": -2.9270046}, {"type": "node", "id": 2317190707, "lat": 53.3898768, "lon": -2.9273267}, {"type": "node", "id": 2317190708, "lat": 53.3898612, "lon": -2.927361}, {"type": "node", "id": 2317190709, "lat": 53.3898546, "lon": -2.9273792}, {"type": "node", "id": 2317190710, "lat": 53.389859, "lon": -2.9274032}, {"type": "node", "id": 2317190711, "lat": 53.3898738, "lon": -2.9274222}, {"type": "node", "id": 2317190712, "lat": 53.3898859, "lon": -2.9275351}, {"type": "node", "id": 2317190713, "lat": 53.3898781, "lon": -2.9275643}, {"type": "node", "id": 2317190714, "lat": 53.389882, "lon": -2.9275934}, {"type": "node", "id": 2317190715, "lat": 53.3898964, "lon": -2.9276095}, {"type": "node", "id": 2317190716, "lat": 53.3899051, "lon": -2.9276189}, {"type": "node", "id": 2317190717, "lat": 53.3900124, "lon": -2.9275818}, {"type": "node", "id": 2317190718, "lat": 53.3900159, "lon": -2.9276255}, {"type": "node", "id": 2317190719, "lat": 53.3900545, "lon": -2.9276146}, {"type": "node", "id": 2317190720, "lat": 53.3900498, "lon": -2.9275658}, {"type": "node", "id": 2317190721, "lat": 53.3901041, "lon": -2.9275483}, {"type": "node", "id": 2433433559, "lat": 53.3872766, "lon": -2.9186632}, {"type": "node", "id": 2433433560, "lat": 53.3871818, "lon": -2.9188764}, {"type": "node", "id": 2433433561, "lat": 53.3871658, "lon": -2.918859}, {"type": "node", "id": 2433433562, "lat": 53.3871418, "lon": -2.9189059}, {"type": "node", "id": 2433433563, "lat": 53.3871266, "lon": -2.9188858}, {"type": "node", "id": 2433433564, "lat": 53.3871154, "lon": -2.9188898}, {"type": "node", "id": 2433433565, "lat": 53.3871062, "lon": -2.9188717}, {"type": "node", "id": 2433433566, "lat": 53.3871006, "lon": -2.9188496}, {"type": "node", "id": 2433433567, "lat": 53.3871078, "lon": -2.9188355}, {"type": "node", "id": 2433433569, "lat": 53.3870894, "lon": -2.9188167}, {"type": "node", "id": 2433433570, "lat": 53.3870758, "lon": -2.9188489}, {"type": "node", "id": 2433433571, "lat": 53.387063, "lon": -2.9188543}, {"type": "node", "id": 2433433572, "lat": 53.387057, "lon": -2.9188529}, {"type": "node", "id": 2433433573, "lat": 53.3870554, "lon": -2.918859}, {"type": "node", "id": 2433433574, "lat": 53.387015, "lon": -2.9188187}, {"type": "node", "id": 2433433575, "lat": 53.387033, "lon": -2.9187812}, {"type": "node", "id": 2433433576, "lat": 53.3869886, "lon": -2.9187255}, {"type": "node", "id": 2433433577, "lat": 53.3870466, "lon": -2.9185975}, {"type": "node", "id": 2433433578, "lat": 53.3870434, "lon": -2.9185794}, {"type": "node", "id": 2433433580, "lat": 53.3870494, "lon": -2.918572}, {"type": "node", "id": 2433433581, "lat": 53.3870594, "lon": -2.9185767}, {"type": "node", "id": 2433433582, "lat": 53.3870734, "lon": -2.9185398}, {"type": "node", "id": 2433433583, "lat": 53.3870494, "lon": -2.9185103}, {"type": "node", "id": 2433433584, "lat": 53.3870998, "lon": -2.9183869}, {"type": "node", "id": 2433433585, "lat": 53.3871758, "lon": -2.9184848}, {"type": "node", "id": 2433433587, "lat": 53.3871762, "lon": -2.9185063}, {"type": "node", "id": 2433433588, "lat": 53.3871874, "lon": -2.918521}, {"type": "node", "id": 2433433589, "lat": 53.3871802, "lon": -2.9185385}, {"type": "node", "id": 2482985463, "lat": 53.402863, "lon": -2.9818075, "tags": {"addr:city": "Liverpool", "addr:street": "Seel Street", "amenity": "pub", "name": "Kazimier Garden"}}, {"type": "node", "id": 2517642894, "lat": 53.3985064, "lon": -2.9867391}, {"type": "node", "id": 2517642901, "lat": 53.3985697, "lon": -2.9866309}, {"type": "node", "id": 2517642907, "lat": 53.3986427, "lon": -2.9868391}, {"type": "node", "id": 2517642911, "lat": 53.3986658, "lon": -2.9867779}, {"type": "node", "id": 2517642912, "lat": 53.3986658, "lon": -2.9868453}, {"type": "node", "id": 2517642913, "lat": 53.3986719, "lon": -2.9868208}, {"type": "node", "id": 2608827648, "lat": 53.40424, "lon": -2.9771472, "tags": {"amenity": "pub", "name": "The Blarney Stone"}}, {"type": "node", "id": 2612341183, "lat": 53.3995569, "lon": -2.9684712, "tags": {"amenity": "pub", "name": "The Blackburne Arms"}}, {"type": "node", "id": 2612342643, "lat": 53.400205, "lon": -2.9696387, "tags": {"addr:housenumber": "6", "addr:street": "Sugnall Street", "amenity": "pub", "cask_marque": "yes", "name": "The Belvedere Arms", "phone": "+44 151 709 0303", "real_ale": "yes", "website": "http://www.belvedereliverpool.com/"}}, {"type": "node", "id": 2691320851, "lat": 53.4450551, "lon": -2.9615722, "tags": {"amenity": "pub", "name": "Top House"}}, {"type": "node", "id": 2702380003, "lat": 53.40224, "lon": -2.9741677, "tags": {"addr:city": "Liverpool", "addr:housenumber": "24", "addr:postcode": "L1 2SX", "addr:street": "Roscoe Street", "amenity": "pub", "name": "The Roscoe Head", "opening_hours": "11:30-24:00", "phone": "+44 151 709 4365", "real_ale": "yes", "website": "http://www.roscoehead.co.uk/"}}, {"type": "node", "id": 2702384791, "lat": 53.4086057, "lon": -2.9777379, "tags": {"addr:city": "Liverpool", "addr:housenumber": "9", "addr:postcode": "L1 1JA", "addr:street": "Pudsey Street", "amenity": "pub", "name": "Ma Egertons", "phone": "+44 151 345 3525", "real_ale": "2 beers, may vary", "website": "http://www.maegertons.com/", "wheelchair": "limited", "wheelchair:description": "Small step at entrance"}}, {"type": "node", "id": 2746158030, "lat": 53.4004295, "lon": -2.9747556}, {"type": "node", "id": 2746158032, "lat": 53.4004389, "lon": -2.9746378}, {"type": "node", "id": 2746158034, "lat": 53.4003704, "lon": -2.974661}, {"type": "node", "id": 2746158039, "lat": 53.4004522, "lon": -2.9747479}, {"type": "node", "id": 2746158045, "lat": 53.4003921, "lon": -2.9748413}, {"type": "node", "id": 2746158048, "lat": 53.4004379, "lon": -2.9748258}, {"type": "node", "id": 2767005100, "lat": 53.4094183, "lon": -2.9775041}, {"type": "node", "id": 2767005188, "lat": 53.4095094, "lon": -2.9775229}, {"type": "node", "id": 2767005201, "lat": 53.409519, "lon": -2.9773754}, {"type": "node", "id": 2767005212, "lat": 53.4094107, "lon": -2.9773499}, {"type": "node", "id": 2776862072, "lat": 53.4103281, "lon": -2.9893193}, {"type": "node", "id": 2776862093, "lat": 53.4104846, "lon": -2.9891556}, {"type": "node", "id": 2776862099, "lat": 53.410373, "lon": -2.9889397}, {"type": "node", "id": 2776862119, "lat": 53.4102642, "lon": -2.9894051}, {"type": "node", "id": 2776862136, "lat": 53.4103365, "lon": -2.9889927}, {"type": "node", "id": 2776862164, "lat": 53.4097296, "lon": -2.9936619}, {"type": "node", "id": 2776862177, "lat": 53.4099081, "lon": -2.9937489}, {"type": "node", "id": 2776862179, "lat": 53.4097766, "lon": -2.9935665}, {"type": "node", "id": 2776862228, "lat": 53.4101539, "lon": -2.9892308}, {"type": "node", "id": 2776862241, "lat": 53.4104481, "lon": -2.9892087}, {"type": "node", "id": 2776862264, "lat": 53.4102306, "lon": -2.9891208}, {"type": "node", "id": 2776862386, "lat": 53.4098611, "lon": -2.9938443}, {"type": "node", "id": 2820163382, "lat": 53.4067519, "lon": -2.9838297, "tags": {"addr:housenumber": "7-8", "addr:postcode": "L1 1EQ", "addr:street": "Williamson Square", "amenity": "pub", "fhrs:id": "497520", "name": "The Shakespeare", "source:addr": "FHRS Open Data"}}, {"type": "node", "id": 3038928011, "lat": 53.4101675, "lon": -2.989139, "tags": {"amenity": "pub", "name": "James Monro", "toilets:wheelchair": "yes", "twitter": "https://twitter.com/jamesmunropub", "wheelchair": "yes"}}, {"type": "node", "id": 3038933670, "lat": 53.408889, "lon": -2.9905401, "tags": {"addr:housenumber": "18", "addr:postcode": "L2 2DT", "addr:street": "Tithebarn Street", "amenity": "pub", "fhrs:id": "497317", "name": "The Railway", "opening_hours": "Mo-Su 11:00-23:00", "phone": "+44 151 236 9799", "source:postcode": "FHRS Open Data"}}, {"type": "node", "id": 3052166955, "lat": 53.4153295, "lon": -2.989617, "tags": {"addr:city": "Liverpool", "addr:housenumber": "1-3", "addr:postcode": "L3 6EP", "addr:street": "Blackstock Street", "amenity": "pub", "building:levels": "2", "name": "The Eagle"}}, {"type": "node", "id": 3227430782, "lat": 53.4052526, "lon": -2.9799934}, {"type": "node", "id": 3227430783, "lat": 53.405075, "lon": -2.9801482}, {"type": "node", "id": 3227430784, "lat": 53.4051926, "lon": -2.9795764}, {"type": "node", "id": 3227430787, "lat": 53.4051764, "lon": -2.9800738}, {"type": "node", "id": 3227430792, "lat": 53.4050738, "lon": -2.9802048}, {"type": "node", "id": 3227430793, "lat": 53.4051859, "lon": -2.9800362}, {"type": "node", "id": 3227430796, "lat": 53.4053509, "lon": -2.9799365}, {"type": "node", "id": 3227430797, "lat": 53.4052032, "lon": -2.9801269}, {"type": "node", "id": 3227430801, "lat": 53.4051716, "lon": -2.9800952}, {"type": "node", "id": 3227430803, "lat": 53.4050884, "lon": -2.9802508}, {"type": "node", "id": 3227430804, "lat": 53.4051312, "lon": -2.9798748}, {"type": "node", "id": 3227430808, "lat": 53.4051889, "lon": -2.9799098}, {"type": "node", "id": 3227430811, "lat": 53.4051237, "lon": -2.9803153}, {"type": "node", "id": 3227430815, "lat": 53.4052163, "lon": -2.9800711}, {"type": "node", "id": 3227430824, "lat": 53.4050997, "lon": -2.980028}, {"type": "node", "id": 3227430826, "lat": 53.4053968, "lon": -2.9798335}, {"type": "node", "id": 3227430827, "lat": 53.4051617, "lon": -2.9797265}, {"type": "node", "id": 3229563983, "lat": 53.3989132, "lon": -2.9445672, "tags": {"addr:city": "Liverpool", "addr:housename": "The Earl Marshall", "addr:housenumber": "107", "addr:street": "Earle Road", "amenity": "pub", "name": "The Earl Marshall", "source": "survey", "website": "https://www.facebook.com/pages/The-Earl-Marshall/200665230026151"}}, {"type": "node", "id": 3615169289, "lat": 53.3772117, "lon": -2.9462498}, {"type": "node", "id": 3615169295, "lat": 53.3772259, "lon": -2.9460904}, {"type": "node", "id": 3615169307, "lat": 53.3772655, "lon": -2.9461896}, {"type": "node", "id": 3615169315, "lat": 53.377288, "lon": -2.946441}, {"type": "node", "id": 3615169317, "lat": 53.3772923, "lon": -2.946016}, {"type": "node", "id": 3615169321, "lat": 53.3773111, "lon": -2.9460632}, {"type": "node", "id": 3615169360, "lat": 53.3774125, "lon": -2.9461487}, {"type": "node", "id": 3615169380, "lat": 53.3774437, "lon": -2.9459145}, {"type": "node", "id": 3615169385, "lat": 53.3774546, "lon": -2.9462544}, {"type": "node", "id": 3615169411, "lat": 53.3774986, "lon": -2.9460522}, {"type": "node", "id": 3615500492, "lat": 53.3777915, "lon": -2.9510492}, {"type": "node", "id": 3615500621, "lat": 53.3778541, "lon": -2.9512195}, {"type": "node", "id": 3615500633, "lat": 53.3778812, "lon": -2.9511914}, {"type": "node", "id": 3615500636, "lat": 53.3778875, "lon": -2.9512084}, {"type": "node", "id": 3615500643, "lat": 53.3779001, "lon": -2.950937}, {"type": "node", "id": 3615500672, "lat": 53.377969, "lon": -2.9511241}, {"type": "node", "id": 3663612052, "lat": 53.4055339, "lon": -2.9910959, "tags": {"amenity": "pub", "name": "The Slaughter House", "source": "local_knowledge"}}, {"type": "node", "id": 3914855588, "lat": 53.4353497, "lon": -2.8889903}, {"type": "node", "id": 3914855590, "lat": 53.4354195, "lon": -2.8890489}, {"type": "node", "id": 3914855591, "lat": 53.4354544, "lon": -2.8889447}, {"type": "node", "id": 3914855592, "lat": 53.4354738, "lon": -2.8885802}, {"type": "node", "id": 3914855594, "lat": 53.4355475, "lon": -2.8890424}, {"type": "node", "id": 3914855595, "lat": 53.4355591, "lon": -2.8887755}, {"type": "node", "id": 3914855597, "lat": 53.4355901, "lon": -2.8886648}, {"type": "node", "id": 3914855599, "lat": 53.4356212, "lon": -2.8888276}, {"type": "node", "id": 3960553386, "lat": 53.3762746, "lon": -2.9312274}, {"type": "node", "id": 3960553387, "lat": 53.3763744, "lon": -2.9317343}, {"type": "node", "id": 3960553388, "lat": 53.3760102, "lon": -2.9320555}, {"type": "node", "id": 3960553389, "lat": 53.3759157, "lon": -2.9315417}, {"type": "node", "id": 3960553393, "lat": 53.3762814, "lon": -2.9318221}, {"type": "node", "id": 3960553398, "lat": 53.3759929, "lon": -2.9319678}, {"type": "node", "id": 3960553400, "lat": 53.3763246, "lon": -2.9314815}, {"type": "node", "id": 3960553401, "lat": 53.3759599, "lon": -2.9317854}, {"type": "node", "id": 4069631714, "lat": 53.4300873, "lon": -2.9625473}, {"type": "node", "id": 4069631715, "lat": 53.4301288, "lon": -2.9627378}, {"type": "node", "id": 4069631716, "lat": 53.430268, "lon": -2.9626523}, {"type": "node", "id": 4069631717, "lat": 53.4302264, "lon": -2.9624617}, {"type": "node", "id": 4070470972, "lat": 53.4298495, "lon": -2.9619334}, {"type": "node", "id": 4070470973, "lat": 53.4297187, "lon": -2.9622082}, {"type": "node", "id": 4070470974, "lat": 53.4297788, "lon": -2.9622794}, {"type": "node", "id": 4070470975, "lat": 53.4298872, "lon": -2.9620481}, {"type": "node", "id": 4070470976, "lat": 53.4298695, "lon": -2.9619512}, {"type": "node", "id": 4112993328, "lat": 53.4027826, "lon": -2.9694428, "tags": {"amenity": "pub", "food": "yes", "name": "The Pen Factory", "real_ale": "yes", "toilets:wheelchair": "yes", "wheelchair": "yes"}}, {"type": "node", "id": 4112993329, "lat": 53.4050279, "lon": -2.9664342, "tags": {"amenity": "pub", "name": "The Sphinx", "real_ale": "yes"}}, {"type": "node", "id": 4176211631, "lat": 53.4094381, "lon": -2.9768663, "tags": {"addr:housenumber": "31", "addr:postcode": "L3 8HR", "addr:street": "London Road", "amenity": "pub", "fhrs:id": "521531", "name": "Paddy's Bar", "source": "survey", "source:addr": "FHRS Open Data"}}, {"type": "node", "id": 4339665737, "lat": 53.4016682, "lon": -2.9707546}, {"type": "node", "id": 4339665738, "lat": 53.4017843, "lon": -2.9707068}, {"type": "node", "id": 4501133133, "lat": 53.4038511, "lon": -2.9884928, "tags": {"amenity": "pub", "name": "Aether"}}, {"type": "node", "id": 4501368701, "lat": 53.4114632, "lon": -2.988313}, {"type": "node", "id": 4501368716, "lat": 53.4114248, "lon": -2.9884529}, {"type": "node", "id": 4501368767, "lat": 53.4115895, "lon": -2.9883966}, {"type": "node", "id": 4501368900, "lat": 53.4115335, "lon": -2.9885629}, {"type": "node", "id": 4508657141, "lat": 53.4048493, "lon": -2.977747, "tags": {"amenity": "pub", "name": "Crazy Jacks"}}, {"type": "node", "id": 4508657143, "lat": 53.3965763, "lon": -2.9674681, "tags": {"addr:street": "Egerton Street", "amenity": "pub", "name": "Peter Kavanagh's", "smoking": "outside"}}, {"type": "node", "id": 4513693596, "lat": 53.4020676, "lon": -2.9733925, "tags": {"amenity": "pub", "name": "Mackenzies"}}, {"type": "node", "id": 4515273377, "lat": 53.3817901, "lon": -2.9448486}, {"type": "node", "id": 4515273378, "lat": 53.3816819, "lon": -2.9450068}, {"type": "node", "id": 4515273379, "lat": 53.3814952, "lon": -2.9446356}, {"type": "node", "id": 4515273380, "lat": 53.3816031, "lon": -2.944483}, {"type": "node", "id": 4515273382, "lat": 53.3817197, "lon": -2.9447089}, {"type": "node", "id": 4519257793, "lat": 53.4094889, "lon": -2.9850275, "tags": {"amenity": "pub", "name": "The Excelsior"}}, {"type": "node", "id": 4530390079, "lat": 53.3807511, "lon": -2.9465943, "tags": {"addr:street": "Lark Lane", "amenity": "pub", "name": "Rhubarb"}}, {"type": "node", "id": 4632403927, "lat": 53.3635934, "lon": -2.879069}, {"type": "node", "id": 4632403928, "lat": 53.3634239, "lon": -2.8795909}, {"type": "node", "id": 4632403929, "lat": 53.3633258, "lon": -2.8795014}, {"type": "node", "id": 4632403930, "lat": 53.3633401, "lon": -2.8794576}, {"type": "node", "id": 4632403931, "lat": 53.3633206, "lon": -2.8794398}, {"type": "node", "id": 4632403932, "lat": 53.3632985, "lon": -2.8795077}, {"type": "node", "id": 4632403933, "lat": 53.3631984, "lon": -2.8794164}, {"type": "node", "id": 4632403934, "lat": 53.3632652, "lon": -2.8792109}, {"type": "node", "id": 4632403935, "lat": 53.3632852, "lon": -2.8792291}, {"type": "node", "id": 4632403936, "lat": 53.3633073, "lon": -2.8791611}, {"type": "node", "id": 4632403937, "lat": 53.3632841, "lon": -2.8791399}, {"type": "node", "id": 4632403938, "lat": 53.3633193, "lon": -2.8790314}, {"type": "node", "id": 4632403939, "lat": 53.3633418, "lon": -2.8790519}, {"type": "node", "id": 4632403940, "lat": 53.3633996, "lon": -2.8788739}, {"type": "node", "id": 4632403941, "lat": 53.363505, "lon": -2.8789701}, {"type": "node", "id": 4632403942, "lat": 53.3635176, "lon": -2.8789313}, {"type": "node", "id": 4632403943, "lat": 53.3635827, "lon": -2.8789906}, {"type": "node", "id": 4632403944, "lat": 53.3635655, "lon": -2.8790435}, {"type": "node", "id": 4674936300, "lat": 53.4150259, "lon": -2.9082822}, {"type": "node", "id": 4674936301, "lat": 53.4148918, "lon": -2.9081584}, {"type": "node", "id": 4674936302, "lat": 53.4150056, "lon": -2.9078113}, {"type": "node", "id": 4674936303, "lat": 53.4151082, "lon": -2.907906}, {"type": "node", "id": 4674936304, "lat": 53.4150745, "lon": -2.9080088}, {"type": "node", "id": 4674936305, "lat": 53.4150363, "lon": -2.9079735}, {"type": "node", "id": 4674936306, "lat": 53.4149934, "lon": -2.9081043}, {"type": "node", "id": 4674936307, "lat": 53.4150354, "lon": -2.9081431}, {"type": "node", "id": 4674936308, "lat": 53.4150209, "lon": -2.9081874}, {"type": "node", "id": 4674936309, "lat": 53.4150486, "lon": -2.908213}, {"type": "node", "id": 4770675886, "lat": 53.4301075, "lon": -2.9626398, "tags": {"entrance": "yes"}}, {"type": "node", "id": 4770982082, "lat": 53.4308775, "lon": -2.9680521, "tags": {"amenity": "pub"}}, {"type": "node", "id": 4771006626, "lat": 53.4308113, "lon": -2.9655773, "tags": {"amenity": "pub", "name": "The Twelfth Man"}}, {"type": "node", "id": 4771046861, "lat": 53.4069614, "lon": -2.9824032, "tags": {"amenity": "pub", "name": "The Fall Well - J D Wetherspoon"}}, {"type": "node", "id": 4796770263, "lat": 53.3605122, "lon": -2.8562877}, {"type": "node", "id": 4796770264, "lat": 53.3605456, "lon": -2.8560545}, {"type": "node", "id": 4796770265, "lat": 53.3604393, "lon": -2.8560118}, {"type": "node", "id": 4796770266, "lat": 53.3604059, "lon": -2.856245}, {"type": "node", "id": 4796770298, "lat": 53.3604853, "lon": -2.8560303}, {"type": "node", "id": 4860488816, "lat": 53.4171607, "lon": -2.8960562}, {"type": "node", "id": 4860488817, "lat": 53.417149, "lon": -2.8960517}, {"type": "node", "id": 4860488818, "lat": 53.4171412, "lon": -2.8961081}, {"type": "node", "id": 4860488819, "lat": 53.4170931, "lon": -2.8960893}, {"type": "node", "id": 4860488820, "lat": 53.4171372, "lon": -2.8957713}, {"type": "node", "id": 4860488821, "lat": 53.4171969, "lon": -2.8957946}, {"type": "node", "id": 4968610422, "lat": 53.3952525, "lon": -2.882269}, {"type": "node", "id": 4968610423, "lat": 53.3951623, "lon": -2.8825298}, {"type": "node", "id": 4968610424, "lat": 53.3953451, "lon": -2.8827075}, {"type": "node", "id": 4968610425, "lat": 53.3954019, "lon": -2.8825433}, {"type": "node", "id": 4968610426, "lat": 53.3953319, "lon": -2.8824752}, {"type": "node", "id": 4968610427, "lat": 53.3953653, "lon": -2.8823786}, {"type": "node", "id": 5370035371, "lat": 53.3426414, "lon": -2.8567162, "tags": {"addr:city": "Liverpool", "addr:postcode": "L24 1UG", "addr:street": "Hale Road", "amenity": "pub", "name": "Dunnies Social Club", "phone": "+44 151 486 1588"}}, {"type": "node", "id": 5412085167, "lat": 53.3501943, "lon": -2.8602602, "tags": {"amenity": "pub", "name": "Metalboxonians Sports & Socail Club"}}, {"type": "node", "id": 5501847361, "lat": 53.40632, "lon": -2.8998728}, {"type": "node", "id": 5501847362, "lat": 53.4063024, "lon": -2.8995282}, {"type": "node", "id": 5501847363, "lat": 53.4061334, "lon": -2.8995524}, {"type": "node", "id": 5612243075, "lat": 53.4063748, "lon": -2.9880467, "tags": {"amenity": "pub", "name": "Cavern Pub"}}, {"type": "node", "id": 5612243079, "lat": 53.4064219, "lon": -2.9870797, "tags": {"amenity": "pub", "name": "The Grapes"}}, {"type": "node", "id": 5612675652, "lat": 53.4047915, "lon": -2.9772658, "tags": {"amenity": "pub", "name": "Brownlows"}}, {"type": "node", "id": 5614789136, "lat": 53.4049823, "lon": -2.9806686, "tags": {"amenity": "pub", "name": "Ranelagh's Tavern"}}, {"type": "node", "id": 5614789141, "lat": 53.4051974, "lon": -2.9798124, "tags": {"amenity": "pub", "name": "Lanigans"}}, {"type": "node", "id": 5617506122, "lat": 53.4250579, "lon": -2.9704894, "tags": {"amenity": "pub", "name": "The Mere Bank", "wikidata": "Q26627405"}}, {"type": "node", "id": 5698869621, "lat": 53.3970653, "lon": -2.9821285, "tags": {"addr:housenumber": "4", "addr:postcode": "L1 0AN", "addr:street": "Kitchen Street", "amenity": "pub", "name": "black lodge brewing"}}, {"type": "node", "id": 5861452513, "lat": 53.4066605, "lon": -2.9887147, "tags": {"amenity": "pub", "name": "The Three Sisters"}}, {"type": "node", "id": 5863833651, "lat": 53.4103736, "lon": -2.9889995, "tags": {"amenity": "pub", "name": "Shenanigans"}}, {"type": "node", "id": 5864978247, "lat": 53.408996, "lon": -2.9854716, "tags": {"amenity": "pub", "name": "Dead Crafty Beer"}}, {"type": "node", "id": 5871150257, "lat": 53.4076586, "lon": -2.9899921, "tags": {"amenity": "pub", "name": "Saddle Inn", "wikidata": "Q26638983"}}, {"type": "node", "id": 5871159300, "lat": 53.4078982, "lon": -2.990109, "tags": {"amenity": "pub", "name": "Lady of Mann"}}, {"type": "node", "id": 5871159303, "lat": 53.4089194, "lon": -2.9870729, "tags": {"amenity": "pub", "name": "The Rose & Crown"}}, {"type": "node", "id": 5871727882, "lat": 53.4040697, "lon": -2.9769913, "tags": {"amenity": "pub", "name": "Grand Central"}}, {"type": "node", "id": 5914024091, "lat": 53.3976474, "lon": -2.9373578, "tags": {"amenity": "pub", "internet_access": "wlan", "name": "The Ashdale", "name:mn": "Sesh city", "opening_hours": "Mo-Su 09:00-00:00"}}, {"type": "node", "id": 6261577342, "lat": 53.4260516, "lon": -2.937918}, {"type": "node", "id": 6261577343, "lat": 53.4259908, "lon": -2.9378241}, {"type": "node", "id": 6261577344, "lat": 53.42599, "lon": -2.9377946}, {"type": "node", "id": 6261577345, "lat": 53.4260516, "lon": -2.9376699}, {"type": "node", "id": 6261577346, "lat": 53.4261243, "lon": -2.9377691}, {"type": "node", "id": 6359170471, "lat": 53.4054384, "lon": -2.9915805, "tags": {"amenity": "pub", "name": "The Cornmarket"}}, {"type": "node", "id": 6732345888, "lat": 53.4568317, "lon": -2.8982379}, {"type": "node", "id": 6732345889, "lat": 53.4567191, "lon": -2.8983289}, {"type": "node", "id": 6732345890, "lat": 53.4567125, "lon": -2.8983059}, {"type": "node", "id": 6732345891, "lat": 53.4566764, "lon": -2.8983351}, {"type": "node", "id": 6732345892, "lat": 53.456665, "lon": -2.8982956}, {"type": "node", "id": 6732345893, "lat": 53.4566509, "lon": -2.898307}, {"type": "node", "id": 6732345894, "lat": 53.4566029, "lon": -2.8981396}, {"type": "node", "id": 6732345895, "lat": 53.4566468, "lon": -2.898104}, {"type": "node", "id": 6732345896, "lat": 53.4566063, "lon": -2.8979625}, {"type": "node", "id": 6732345897, "lat": 53.4566655, "lon": -2.8979146}, {"type": "node", "id": 6732345898, "lat": 53.4566806, "lon": -2.8979671}, {"type": "node", "id": 6732345899, "lat": 53.4567207, "lon": -2.8979347}, {"type": "node", "id": 6732345900, "lat": 53.4567339, "lon": -2.8979807}, {"type": "node", "id": 6732345901, "lat": 53.4567535, "lon": -2.8979648}, {"type": "node", "id": 7565934689, "lat": 53.4222288, "lon": -2.9600711, "tags": {"amenity": "pub", "name": "The Royal"}}, {"type": "node", "id": 7565934699, "lat": 53.4236497, "lon": -2.9574855, "tags": {"amenity": "pub"}}, {"type": "node", "id": 7856452112, "lat": 53.3633051, "lon": -2.9155782}, {"type": "node", "id": 7856452113, "lat": 53.3635276, "lon": -2.9152758}, {"type": "node", "id": 7856452114, "lat": 53.3635072, "lon": -2.9152337}, {"type": "node", "id": 7856452115, "lat": 53.3635308, "lon": -2.9152017}, {"type": "node", "id": 7856452116, "lat": 53.3634899, "lon": -2.9151172}, {"type": "node", "id": 7856452117, "lat": 53.3634509, "lon": -2.9151703}, {"type": "node", "id": 7856452118, "lat": 53.3633532, "lon": -2.9149685}, {"type": "node", "id": 7856452119, "lat": 53.3631816, "lon": -2.9152018}, {"type": "node", "id": 7856452120, "lat": 53.3632786, "lon": -2.9154022}, {"type": "node", "id": 7856452121, "lat": 53.3632432, "lon": -2.9154504}, {"type": "node", "id": 7875693941, "lat": 53.3739404, "lon": -2.8703955}, {"type": "node", "id": 7875693942, "lat": 53.3740404, "lon": -2.8702493}, {"type": "node", "id": 7875693943, "lat": 53.374018, "lon": -2.870189}, {"type": "node", "id": 7875693944, "lat": 53.3739436, "lon": -2.870189}, {"type": "node", "id": 7875693945, "lat": 53.3738859, "lon": -2.8702869}, {"type": "node", "id": 7875695644, "lat": 53.3715808, "lon": -2.8736383}, {"type": "node", "id": 7875695645, "lat": 53.3715808, "lon": -2.8736772}, {"type": "node", "id": 7875695646, "lat": 53.3715936, "lon": -2.8737161}, {"type": "node", "id": 7875695647, "lat": 53.3716632, "lon": -2.8737389}, {"type": "node", "id": 7875695648, "lat": 53.3716912, "lon": -2.8736812}, {"type": "node", "id": 7875695649, "lat": 53.3717304, "lon": -2.8737348}, {"type": "node", "id": 7875695650, "lat": 53.3717561, "lon": -2.8736946}, {"type": "node", "id": 7875695653, "lat": 53.3717265, "lon": -2.8736456}, {"type": "node", "id": 7875695654, "lat": 53.3716612, "lon": -2.8735364}, {"type": "node", "id": 8179261764, "lat": 53.4595524, "lon": -2.9086634}, {"type": "node", "id": 8179261765, "lat": 53.4595141, "lon": -2.9085402}, {"type": "node", "id": 8179261766, "lat": 53.4595017, "lon": -2.908551}, {"type": "node", "id": 8179261767, "lat": 53.4594717, "lon": -2.9084542}, {"type": "node", "id": 8179261768, "lat": 53.459484, "lon": -2.9084434}, {"type": "node", "id": 8179261769, "lat": 53.4594589, "lon": -2.9083626}, {"type": "node", "id": 8179261770, "lat": 53.4594258, "lon": -2.9083916}, {"type": "node", "id": 8179261771, "lat": 53.4594075, "lon": -2.9083327}, {"type": "node", "id": 8179261772, "lat": 53.4594195, "lon": -2.9083222}, {"type": "node", "id": 8179261773, "lat": 53.4594021, "lon": -2.9082661}, {"type": "node", "id": 8179261774, "lat": 53.4594111, "lon": -2.9082582}, {"type": "node", "id": 8179261775, "lat": 53.4594041, "lon": -2.9082355}, {"type": "node", "id": 8179261776, "lat": 53.4594832, "lon": -2.9081662}, {"type": "node", "id": 8179261777, "lat": 53.4594894, "lon": -2.908186}, {"type": "node", "id": 8179261778, "lat": 53.4596038, "lon": -2.9080857}, {"type": "node", "id": 8179261779, "lat": 53.4596711, "lon": -2.9083024}, {"type": "node", "id": 8179261780, "lat": 53.4596408, "lon": -2.9083288}, {"type": "node", "id": 8179261781, "lat": 53.4596844, "lon": -2.9084691}, {"type": "node", "id": 8179261782, "lat": 53.4596001, "lon": -2.908543}, {"type": "node", "id": 8179261783, "lat": 53.4596193, "lon": -2.9086048}, {"type": "node", "id": 8245202547, "lat": 53.4431696, "lon": -2.9713669}, {"type": "node", "id": 8245202548, "lat": 53.4430824, "lon": -2.9713158}, {"type": "node", "id": 8245202549, "lat": 53.4431467, "lon": -2.9709044}, {"type": "node", "id": 8245202550, "lat": 53.4432237, "lon": -2.9709483}, {"type": "node", "id": 8245202551, "lat": 53.4432352, "lon": -2.9709827}, {"type": "node", "id": 8245202557, "lat": 53.4431088, "lon": -2.9711469}, {"type": "node", "id": 8245202649, "lat": 53.4418738, "lon": -2.9712268}, {"type": "node", "id": 8245202650, "lat": 53.4417822, "lon": -2.9711809}, {"type": "node", "id": 8245202651, "lat": 53.4418277, "lon": -2.9709094}, {"type": "node", "id": 8245202652, "lat": 53.4419043, "lon": -2.9709137}, {"type": "node", "id": 8245202653, "lat": 53.4419246, "lon": -2.9709398}, {"type": "node", "id": 8245584789, "lat": 53.4455948, "lon": -2.9722777}, {"type": "node", "id": 8245584792, "lat": 53.4456522, "lon": -2.9720268}, {"type": "node", "id": 8245584793, "lat": 53.4455342, "lon": -2.9719507}, {"type": "node", "id": 8245584794, "lat": 53.4454768, "lon": -2.9722015}, {"type": "way", "id": 35591567, "nodes": [417128294, 417128296, 417128299, 417128301, 417128294], "tags": {"amenity": "pub", "building": "pub", "name": "The Black Bull", "operator": "Free House"}}, {"type": "way", "id": 85413004, "nodes": [990202065, 990202066, 990202067, 990202068, 990202071, 990202072, 990202074, 990202076, 990202065], "tags": {"addr:city": "Liverpool", "addr:postcode": "L3 4AN", "addr:street": "Hartley's Quay", "amenity": "pub", "building": "yes", "fhrs:id": "498826", "food": "yes", "name": "The Pump House", "name:ko": "\ub354 \ud38c\ud504 \ud558\uc6b0\uc2a4", "operator": "Greene King", "smoking": "outside", "source": "Bing+established alignment;local_knowledge", "wikidata": "Q26569939"}}, {"type": "way", "id": 199261442, "nodes": [2092758575, 2092758576, 2092758574, 2092758573, 2092758571, 2092758572, 2092758575], "tags": {"amenity": "pub", "building": "yes", "name": "Durning Arms"}}, {"type": "way", "id": 202287060, "nodes": [2122597306, 2122597305, 2122597303, 2122597294, 2122597293, 2122597296, 2122597295, 2122597298, 2122597300, 2122597301, 2122597306], "tags": {"amenity": "pub", "building": "yes", "name": "Thatched House", "source": "bing"}}, {"type": "way", "id": 210900501, "nodes": [2209291866, 2209291869, 2209291870, 2209291871, 2209291868, 2209291867, 2209291865, 2209291866], "tags": {"amenity": "pub", "building": "yes", "name": "The New Holt"}}, {"type": "way", "id": 211032245, "nodes": [2210413357, 2210413358, 2210413354, 2210413352, 2210413351, 2210413353, 2210413357], "tags": {"amenity": "pub", "building": "yes", "name": "Lister Hotel"}}, {"type": "way", "id": 211056168, "nodes": [2210618314, 2210618320, 2210618323, 2210618316, 2210618314], "tags": {"addr:housenumber": "161", "addr:postcode": "L7 2RE", "addr:street": "Kensington", "amenity": "pub", "building": "yes", "name": "The Vinebrook"}}, {"type": "way", "id": 214818625, "nodes": [4339665738, 2242905919, 2242906060, 2242905962, 2242905996, 2242906042, 2242906058, 4339665737, 4339665738], "tags": {"amenity": "pub", "brand": "Nicholson's", "building": "yes", "cask_marque": "yes", "food": "yes", "listed_status": "Grade I", "name": "The Philharmonic Dining Rooms", "name:ko": "\ud544\ud558\ubaa8\ub2c9 \ub2e4\uc774\ub2dd \ub8f8", "operator": "Mitchells & Butlers", "real_ale": "yes", "wikidata": "Q15266134"}}, {"type": "way", "id": 221893884, "nodes": [2308757863, 2308757877, 2308757894, 2308757892, 2308757863], "tags": {"amenity": "pub", "building": "yes", "name": "The Beehive", "opening_hours": "Mo-Su 11:00-11:00"}}, {"type": "way", "id": 221893886, "nodes": [2308757860, 2308757918, 2308757883, 2308757906, 2308757864, 2308757860], "tags": {"addr:housenumber": "5", "addr:postcode": "L1 1DS", "addr:street": "Tarleton Street", "amenity": "pub", "building": "yes", "fhrs:id": "497325", "name": "Carnarvon Castle", "source:addr": "FHRS Open Data"}}, {"type": "way", "id": 222782020, "nodes": [2317190700, 2317190701, 2317190702, 2317190703, 2317190704, 2317190705, 2317190706, 2317190707, 2317190708, 2317190709, 2317190710, 2317190711, 2317190712, 2317190713, 2317190714, 2317190715, 2317190716, 2317190717, 2317190718, 2317190719, 2317190720, 2317190721, 2317190700], "tags": {"amenity": "pub", "building": "yes", "name": "The Brookhouse"}}, {"type": "way", "id": 235258450, "nodes": [2433433559, 2433433560, 2433433561, 2433433562, 2433433563, 2433433564, 2433433565, 2433433566, 2433433567, 2433433569, 2433433570, 2433433571, 2433433572, 2433433573, 2433433574, 2433433575, 2433433576, 2433433577, 2433433578, 2433433580, 2433433581, 2433433582, 2433433583, 2433433584, 2433433585, 2433433587, 2433433588, 2433433589, 2433433559], "tags": {"addr:city": "Liverpool", "addr:housenumber": "60", "addr:postcode": "L18 1DG", "addr:street": "Penny Lane", "amenity": "pub", "building": "yes", "building:levels": "1", "name": "Dovedale Towers"}}, {"type": "way", "id": 244449045, "nodes": [105746431, 2517642911, 2517642913, 2517642912, 2517642907, 2517642894, 2517642901, 105746431], "tags": {"addr:street": "Wapping", "amenity": "pub", "building": "yes", "building:levels": "3", "food": "yes", "heritage": "2", "heritage:operator": "Historic England", "listed_status": "Grade II", "microbrewery": "yes", "name": "Baltic Fleet", "real_ale": "yes", "smoking": "outside", "website": "http://www.wappingbeers.co.uk/", "wikidata": "Q26513078"}}, {"type": "way", "id": 269391427, "nodes": [2746158045, 2746158034, 2746158032, 2746158039, 2746158030, 2746158048, 2746158045], "tags": {"addr:city": "Liverpool", "addr:housenumber": "60", "addr:street": "Roscoe Street", "amenity": "pub", "building": "yes", "name": "The Grapes", "smoking": "outside"}}, {"type": "way", "id": 271759731, "nodes": [2767005100, 2767005212, 2767005201, 2767005188, 2767005100], "tags": {"addr:housenumber": "21", "addr:postcode": "L3 8HR", "addr:street": "London Road", "amenity": "pub", "building": "pub", "fhrs:id": "496787", "name": "The Lord Warden", "source": "survey", "source:addr": "FHRS Open Data", "source:geometry": "Bing"}}, {"type": "way", "id": 272759720, "nodes": [2776862386, 2776862164, 2776862179, 2776862177, 2776862386], "tags": {"amenity": "pub", "building": "yes"}}, {"type": "way", "id": 272759735, "nodes": [2776862241, 2776862136, 2776862099, 2776862093, 2776862241], "tags": {"addr:housenumber": "77", "addr:street": "Tithebarn Street", "amenity": "pub", "building": "yes", "name": "Shenanigans"}}, {"type": "way", "id": 272759777, "nodes": [2776862119, 2776862228, 2776862264, 2776862072, 2776862119], "tags": {"addr:street": "Tithebarn Street", "amenity": "pub", "building": "yes", "lgbtq": "primary", "name": "Kitty's Showbar"}}, {"type": "way", "id": 316610845, "nodes": [3227430784, 3227430827, 3227430796, 3227430826, 3227430784], "tags": {"amenity": "pub", "building": "yes", "name": "The Irish House"}}, {"type": "way", "id": 316610852, "nodes": [3227430804, 3227430824, 3227430787, 3227430793, 3227430815, 3227430782, 3227430808, 3227430804], "tags": {"amenity": "pub", "building": "yes", "name": "The Central", "wikidata": "Q26504564"}}, {"type": "way", "id": 316610855, "nodes": [3227430824, 3227430783, 3227430792, 3227430803, 3227430811, 3227430797, 3227430801, 3227430787, 3227430824], "tags": {"amenity": "pub", "building": "yes", "name": "Walker's"}}, {"type": "way", "id": 356035606, "nodes": [3615169315, 3615169289, 3615169307, 3615169295, 3615169317, 3615169321, 3615169380, 3615169411, 3615169360, 3615169385, 3615169315], "tags": {"amenity": "pub", "building": "yes", "name": "Saint Charles Parochial Club"}}, {"type": "way", "id": 356068518, "nodes": [3615500636, 3615500633, 3615500621, 3615500492, 3615500643, 3615500672, 3615500636], "tags": {"amenity": "pub", "building": "yes", "name": "The Belgrave"}}, {"type": "way", "id": 388272620, "nodes": [3914855597, 3914855595, 3914855599, 3914855594, 3914855591, 3914855590, 3914855588, 3914855592, 3914855597], "tags": {"amenity": "pub", "building": "yes", "name": "The Deysbrook"}}, {"type": "way", "id": 392866582, "nodes": [3960553386, 3960553400, 3960553387, 3960553393, 3960553388, 3960553398, 3960553401, 3960553389, 3960553386], "tags": {"amenity": "pub", "name": "The Victoria", "note": "Previously called the \"Aigburth Arms\"", "wheelchair": "limited"}}, {"type": "way", "id": 404691588, "nodes": [4069631714, 4770675886, 4069631715, 4069631716, 4069631717, 4069631714], "tags": {"addr:city": "Liverpool", "addr:housenumber": "185", "addr:postcode": "L4 0RE", "addr:street": "Walton Breck Road", "amenity": "pub", "building": "yes", "name": "The Albert", "outdoor_seating": "no"}}, {"type": "way", "id": 404789629, "nodes": [4070470972, 4070470973, 4070470974, 4070470975, 4070470976, 4070470972], "tags": {"amenity": "pub", "building": "yes", "name": "The Park"}}, {"type": "way", "id": 453394548, "nodes": [4501368767, 4501368900, 4501368716, 4501368701, 4501368767], "tags": {"amenity": "pub", "building": "yes", "name": "Vauxhall Vaults"}}, {"type": "way", "id": 455075107, "nodes": [4515273377, 4515273378, 4515273379, 4515273380, 4515273382, 4515273377], "tags": {"addr:city": "Liverpool", "addr:housenumber": "66-68", "addr:postcode": "L17 8UU", "addr:street": "Lark Lane", "amenity": "pub", "building": "yes", "name": "The Albert", "phone": "+44 151 726 9119", "smoking": "outside", "wikidata": "Q26367801"}}, {"type": "way", "id": 468770484, "nodes": [4632403927, 4632403928, 4632403929, 4632403930, 4632403931, 4632403932, 4632403933, 4632403934, 4632403935, 4632403936, 4632403937, 4632403938, 4632403939, 4632403940, 4632403941, 4632403942, 4632403943, 4632403944, 4632403927], "tags": {"addr:housename": "Pub in the Park", "addr:street": "Clarke's Gardens", "amenity": "pub", "building": "yes", "name": "Allerton Hall", "wikidata": "Q4732141", "wikipedia": "en:Allerton Hall"}}, {"type": "way", "id": 473367799, "nodes": [4674936300, 4674936301, 4674936302, 4674936303, 4674936304, 4674936305, 4674936306, 4674936307, 4674936308, 4674936309, 4674936300], "tags": {"amenity": "pub", "building": "yes", "name": "The Black Horse"}}, {"type": "way", "id": 487166642, "nodes": [4796770263, 4796770264, 4796770298, 4796770265, 4796770266, 4796770263], "tags": {"amenity": "pub", "building": "yes", "name": "The Waiting Room"}}, {"type": "way", "id": 494269021, "nodes": [4860488816, 4860488817, 4860488818, 4860488819, 4860488820, 4860488821, 4860488816], "tags": {"amenity": "pub", "building": "yes", "name": "The Wheatsheaf"}}, {"type": "way", "id": 507336647, "nodes": [4968610422, 4968610423, 4968610424, 4968610425, 4968610426, 4968610427, 4968610422], "tags": {"amenity": "pub", "building": "yes", "name": "Childwall Abbey", "source": "OS OpenMap Local", "wikidata": "Q26569509"}}, {"type": "way", "id": 572701408, "nodes": [152294598, 5501847361, 5501847362, 5501847363, 152294598], "tags": {"amenity": "pub", "building": "yes", "name": "The Rocket"}}, {"type": "way", "id": 668643365, "nodes": [6261577342, 6261577343, 6261577344, 6261577345, 6261577346, 6261577342], "tags": {"amenity": "pub", "building": "yes", "name": "The Clifton Arms"}}, {"type": "way", "id": 716753032, "nodes": [6732345888, 6732345889, 6732345890, 6732345891, 6732345892, 6732345893, 6732345894, 6732345895, 6732345896, 6732345897, 6732345898, 6732345899, 6732345900, 6732345901, 6732345888], "tags": {"amenity": "pub", "building": "pub", "name": "The Lobster", "source:name": "Bing Streetside"}}, {"type": "way", "id": 842125627, "nodes": [7856452121, 7856452120, 7856452119, 7856452118, 7856452117, 7856452116, 7856452115, 7856452114, 7856452113, 7856452112, 7856452121], "tags": {"amenity": "pub", "building": "pub", "name": "Toby Carvery"}}, {"type": "way", "id": 844287577, "nodes": [7875693945, 7875693944, 7875693943, 7875693942, 7875693941, 7875693945], "tags": {"amenity": "pub", "building": "pub", "name": "The Grapes"}}, {"type": "way", "id": 844288031, "nodes": [7875695653, 7875695650, 7875695649, 7875695648, 7875695647, 7875695646, 7875695645, 7875695644, 7875695654, 7875695653], "tags": {"addr:city": "Liverpool", "addr:housenumber": "160-162", "addr:street": "Allerton Road", "amenity": "pub", "building": "pub", "name": "The Derby Arms", "smoking": "outside"}}, {"type": "way", "id": 879221100, "nodes": [8179261764, 8179261765, 8179261766, 8179261767, 8179261768, 8179261769, 8179261770, 8179261771, 8179261772, 8179261773, 8179261774, 8179261775, 8179261776, 8179261777, 8179261778, 8179261779, 8179261780, 8179261781, 8179261782, 8179261783, 8179261764], "tags": {"addr:city": "Liverpool", "addr:housenumber": "1", "addr:postcode": "L11 2BD", "addr:street": "Sugarbrook Drive", "amenity": "pub", "building": "yes", "name": "Viking Landing"}}, {"type": "way", "id": 886703425, "nodes": [8245202547, 8245202548, 8245202557, 8245202549, 8245202550, 8245202551, 8245202547], "tags": {"abandoned": "yes", "amenity": "pub", "building": "yes"}}, {"type": "way", "id": 886703448, "nodes": [8245202649, 8245202650, 8245202651, 8245202652, 8245202653, 8245202649], "tags": {"amenity": "pub", "building": "yes"}}, {"type": "way", "id": 886752523, "nodes": [8245584792, 8245584793, 8245584794, 8245584789, 8245584792], "tags": {"amenity": "pub", "building": "yes"}}]}